{
  "type": "FeatureCollection",
  "features": [
    {
      "type": "Feature",
      "properties": {
        "norad_id": 66909,
        "name": "SILVERSAT",
        "group": "stations",
        "lat": 32.49343566733708,
        "lon": -172.25243724330738,
        "alt_km": 412.7081701584193,
        "timestamp": "2025-12-09T16:56:35.376123+00:00",
        "meta_object_name": "SILVERSAT",
        "meta_object_id": "1998-067XV",
        "meta_epoch": "2025-12-09T12:07:05.660832",
        "meta_mean_motion": 15.51001422,
        "meta_eccentricity": 0.0004874,
        "meta_inclination": 51.6302,
        "meta_ra_of_asc_node": 158.4394,
        "meta_arg_of_pericenter": 208.8709,
        "meta_mean_anomaly": 151.2011,
        "meta_ephemeris_type": 0,
        "meta_classification_type": "U",
        "meta_norad_cat_id": 66909,
        "meta_element_set_no": 999,
        "meta_rev_at_epoch": 111,
        "meta_bstar": 0.0014217,
        "meta_mean_motion_dot": 0.00084543,
        "meta_mean_motion_ddot": 0,
        "tle_line1": "1 66909U 98067XV  25343.50492663  .00084543  00000+0  14217-2 0  9992",
        "tle_line2": "2 66909  51.6302 158.4394 0004874 208.8709 151.2011 15.51001422  1115"
      },
      "geometry": {
        "type": "Point",
        "coordinates": [
          -172.25243724330738,
          32.49343566733708
        ]
      }
    },
    {
      "type": "Feature",
      "properties": {
        "norad_id": 66910,
        "name": "1998-067XW",
        "group": "stations",
        "lat": 36.81923173475659,
        "lon": -166.19327453047168,
        "alt_km": 411.4487287751781,
        "timestamp": "2025-12-09T16:56:35.376136+00:00",
        "meta_object_name": "1998-067XW",
        "meta_object_id": "1998-067XW",
        "meta_epoch": "2025-12-08T22:10:28.284672",
        "meta_mean_motion": 15.51111527,
        "meta_eccentricity": 0.0005924,
        "meta_inclination": 51.6296,
        "meta_ra_of_asc_node": 161.31,
        "meta_arg_of_pericenter": 189.6176,
        "meta_mean_anomaly": 170.4701,
        "meta_ephemeris_type": 0,
        "meta_classification_type": "U",
        "meta_norad_cat_id": 66910,
        "meta_element_set_no": 999,
        "meta_rev_at_epoch": 102,
        "meta_bstar": 0.0011827,
        "meta_mean_motion_dot": 0.00070418,
        "meta_mean_motion_ddot": 0,
        "tle_line1": "1 66910U 98067XW  25342.92393848  .00070418  00000+0  11827-2 0  9994",
        "tle_line2": "2 66910  51.6296 161.3100 0005924 189.6176 170.4701 15.51111527  1025"
      },
      "geometry": {
        "type": "Point",
        "coordinates": [
          -166.19327453047168,
          36.81923173475659
        ]
      }
    },
    {
      "type": "Feature",
      "properties": {
        "norad_id": 66911,
        "name": "1998-067XX",
        "group": "stations",
        "lat": 37.92776678775292,
        "lon": -164.44854528389618,
        "alt_km": 410.6656247926967,
        "timestamp": "2025-12-09T16:56:35.376146+00:00",
        "meta_object_name": "1998-067XX",
        "meta_object_id": "1998-067XX",
        "meta_epoch": "2025-12-09T02:48:25.039872",
        "meta_mean_motion": 15.51276485,
        "meta_eccentricity": 0.0005703,
        "meta_inclination": 51.6296,
        "meta_ra_of_asc_node": 160.3494,
        "meta_arg_of_pericenter": 191.2268,
        "meta_mean_anomaly": 168.8595,
        "meta_ephemeris_type": 0,
        "meta_classification_type": "U",
        "meta_norad_cat_id": 66911,
        "meta_element_set_no": 999,
        "meta_rev_at_epoch": 104,
        "meta_bstar": 0.0014246,
        "meta_mean_motion_dot": 0.00085582,
        "meta_mean_motion_ddot": 0,
        "tle_line1": "1 66911U 98067XX  25343.11695648  .00085582  00000+0  14246-2 0  9996",
        "tle_line2": "2 66911  51.6296 160.3494 0005703 191.2268 168.8595 15.51276485  1046"
      },
      "geometry": {
        "type": "Point",
        "coordinates": [
          -164.44854528389618,
          37.92776678775292
        ]
      }
    },
    {
      "type": "Feature",
      "properties": {
        "norad_id": 66912,
        "name": "1998-067XY",
        "group": "stations",
        "lat": 29.238330509794945,
        "lon": -176.22308257933133,
        "alt_km": 414.35960062492813,
        "timestamp": "2025-12-09T16:56:35.376156+00:00",
        "meta_object_name": "1998-067XY",
        "meta_object_id": "1998-067XY",
        "meta_epoch": "2025-12-08T19:07:24.168000",
        "meta_mean_motion": 15.50590071,
        "meta_eccentricity": 0.0005044,
        "meta_inclination": 51.6301,
        "meta_ra_of_asc_node": 161.961,
        "meta_arg_of_pericenter": 202.8278,
        "meta_mean_anomaly": 157.2488,
        "meta_ephemeris_type": 0,
        "meta_classification_type": "U",
        "meta_norad_cat_id": 66912,
        "meta_element_set_no": 999,
        "meta_rev_at_epoch": 99,
        "meta_bstar": 0.00096272,
        "meta_mean_motion_dot": 0.00056065,
        "meta_mean_motion_ddot": 0,
        "tle_line1": "1 66912U 98067XY  25342.79680750  .00056065  00000+0  96272-3 0  9992",
        "tle_line2": "2 66912  51.6301 161.9610 0005044 202.8278 157.2488 15.50590071   994"
      },
      "geometry": {
        "type": "Point",
        "coordinates": [
          -176.22308257933133,
          29.238330509794945
        ]
      }
    }
  ]
}